[{"OBJECT_NAME":"INMARSAT 4-F2 (SOUTHPAN/PRN 122)","OBJECT_ID":"2005-044A","EPOCH":"2026-03-03T19:53:32.620128","MEAN_MOTION":1.00271478,"ECCENTRICITY":0.0002619,"INCLINATION":4.9565,"RA_OF_ASC_NODE":43.804,"ARG_OF_PERICENTER":317.3778,"MEAN_ANOMALY":242.2859,"EPHEMERIS_TYPE":0,"CLASSIFICATION_TYPE":"U","NORAD_CAT_ID":28899,"ELEMENT_SET_NO":999,"REV_AT_EPOCH":7446,"BSTAR":0,"MEAN_MOTION_DOT":-2.71e-6,"MEAN_MOTION_DDOT":0},{"OBJECT_NAME":"GSAT-8 (GAGAN/PRN 127)","OBJECT_ID":"2011-022A","EPOCH":"2026-03-04T02:19:02.273376","MEAN_MOTION":1.00272148,"ECCENTRICITY":0.0007381,"INCLINATION":1.8595,"RA_OF_ASC_NODE":83.1619,"ARG_OF_PERICENTER":214.8948,"MEAN_ANOMALY":313.596,"EPHEMERIS_TYPE":0,"CLASSIFICATION_TYPE":"U","NORAD_CAT_ID":37605,"ELEMENT_SET_NO":999,"REV_AT_EPOCH":5216,"BSTAR":0,"MEAN_MOTION_DOT":7.3e-7,"MEAN_MOTION_DDOT":0},{"OBJECT_NAME":"LUCH 5A (SDCM/PRN 140)","OBJECT_ID":"2011-074B","EPOCH":"2026-03-03T20:00:16.974720","MEAN_MOTION":1.00275356,"ECCENTRICITY":0.00040051,"INCLINATION":8.4858,"RA_OF_ASC_NODE":75.3546,"ARG_OF_PERICENTER":243.8626,"MEAN_ANOMALY":309.5287,"EPHEMERIS_TYPE":0,"CLASSIFICATION_TYPE":"U","NORAD_CAT_ID":37951,"ELEMENT_SET_NO":999,"REV_AT_EPOCH":5199,"BSTAR":0,"MEAN_MOTION_DOT":-5.7e-7,"MEAN_MOTION_DDOT":0},{"OBJECT_NAME":"SES-5 (EGNOS/PRN 136)","OBJECT_ID":"2012-036A","EPOCH":"2026-03-04T03:47:31.288128","MEAN_MOTION":1.00271928,"ECCENTRICITY":0.0002021,"INCLINATION":0.0603,"RA_OF_ASC_NODE":310.79,"ARG_OF_PERICENTER":27.8584,"MEAN_ANOMALY":245.1093,"EPHEMERIS_TYPE":0,"CLASSIFICATION_TYPE":"U","NORAD_CAT_ID":38652,"ELEMENT_SET_NO":999,"REV_AT_EPOCH":4340,"BSTAR":0,"MEAN_MOTION_DOT":2.1e-7,"MEAN_MOTION_DDOT":0},{"OBJECT_NAME":"GSAT-10 (GAGAN/PRN 128)","OBJECT_ID":"2012-051B","EPOCH":"2026-03-03T10:56:38.679936","MEAN_MOTION":1.00273302,"ECCENTRICITY":0.0004157,"INCLINATION":0.0759,"RA_OF_ASC_NODE":263.9438,"ARG_OF_PERICENTER":175.5434,"MEAN_ANOMALY":328.8469,"EPHEMERIS_TYPE":0,"CLASSIFICATION_TYPE":"U","NORAD_CAT_ID":38779,"ELEMENT_SET_NO":999,"REV_AT_EPOCH":4903,"BSTAR":0,"MEAN_MOTION_DOT":-1.79e-6,"MEAN_MOTION_DDOT":0},{"OBJECT_NAME":"LUCH 5B (SDCM/PRN 125)","OBJECT_ID":"2012-061A","EPOCH":"2026-03-03T21:39:13.674240","MEAN_MOTION":1.00271596,"ECCENTRICITY":0.00043919,"INCLINATION":10.2575,"RA_OF_ASC_NODE":50.9099,"ARG_OF_PERICENTER":223.3648,"MEAN_ANOMALY":195.8772,"EPHEMERIS_TYPE":0,"CLASSIFICATION_TYPE":"U","NORAD_CAT_ID":38977,"ELEMENT_SET_NO":999,"REV_AT_EPOCH":4855,"BSTAR":0,"MEAN_MOTION_DOT":-1.46e-6,"MEAN_MOTION_DDOT":0},{"OBJECT_NAME":"ASTRA 5B (EGNOS/PRN 123)","OBJECT_ID":"2014-011B","EPOCH":"2026-03-04T01:39:38.681280","MEAN_MOTION":1.00270762,"ECCENTRICITY":0.0004158,"INCLINATION":0.0915,"RA_OF_ASC_NODE":298.4827,"ARG_OF_PERICENTER":26.5677,"MEAN_ANOMALY":245.1554,"EPHEMERIS_TYPE":0,"CLASSIFICATION_TYPE":"U","NORAD_CAT_ID":39617,"ELEMENT_SET_NO":999,"REV_AT_EPOCH":4361,"BSTAR":0,"MEAN_MOTION_DOT":1.24e-6,"MEAN_MOTION_DDOT":0},{"OBJECT_NAME":"LUCH 5V (SDCM/PRN 141)","OBJECT_ID":"2014-023A","EPOCH":"2026-03-04T02:30:23.684256","MEAN_MOTION":1.00271806,"ECCENTRICITY":0.0002986,"INCLINATION":4.8741,"RA_OF_ASC_NODE":70.7773,"ARG_OF_PERICENTER":278.0466,"MEAN_ANOMALY":305.3623,"EPHEMERIS_TYPE":0,"CLASSIFICATION_TYPE":"U","NORAD_CAT_ID":39727,"ELEMENT_SET_NO":999,"REV_AT_EPOCH":4330,"BSTAR":0,"MEAN_MOTION_DOT":-2.79e-6,"MEAN_MOTION_DDOT":0},{"OBJECT_NAME":"GSAT-15 (GAGAN/PRN 139)","OBJECT_ID":"2015-065A","EPOCH":"2026-03-04T00:47:18.567456","MEAN_MOTION":1.00268671,"ECCENTRICITY":8.14e-5,"INCLINATION":0.0905,"RA_OF_ASC_NODE":270.0434,"ARG_OF_PERICENTER":97.3378,"MEAN_ANOMALY":259.7031,"EPHEMERIS_TYPE":0,"CLASSIFICATION_TYPE":"U","NORAD_CAT_ID":41028,"ELEMENT_SET_NO":999,"REV_AT_EPOCH":3774,"BSTAR":0,"MEAN_MOTION_DOT":-2.7e-6,"MEAN_MOTION_DDOT":0},{"OBJECT_NAME":"EUTELSAT 117 WEST B (WAAS/PRN 131)","OBJECT_ID":"2016-038B","EPOCH":"2026-03-04T03:12:42.125760","MEAN_MOTION":1.00271894,"ECCENTRICITY":1.99e-5,"INCLINATION":0.0383,"RA_OF_ASC_NODE":347.9115,"ARG_OF_PERICENTER":235.6485,"MEAN_ANOMALY":229.5029,"EPHEMERIS_TYPE":0,"CLASSIFICATION_TYPE":"U","NORAD_CAT_ID":41589,"ELEMENT_SET_NO":999,"REV_AT_EPOCH":3561,"BSTAR":0,"MEAN_MOTION_DOT":-2.4e-7,"MEAN_MOTION_DDOT":0},{"OBJECT_NAME":"SES-15 (WAAS/PRN 133)","OBJECT_ID":"2017-026A","EPOCH":"2026-03-04T03:09:12.460608","MEAN_MOTION":1.00270724,"ECCENTRICITY":7.25e-5,"INCLINATION":0.0446,"RA_OF_ASC_NODE":309.4036,"ARG_OF_PERICENTER":34.29,"MEAN_ANOMALY":96.3137,"EPHEMERIS_TYPE":0,"CLASSIFICATION_TYPE":"U","NORAD_CAT_ID":42709,"ELEMENT_SET_NO":999,"REV_AT_EPOCH":637,"BSTAR":0,"MEAN_MOTION_DOT":4.7e-7,"MEAN_MOTION_DDOT":0},{"OBJECT_NAME":"QZS-2 (QZSS/PRN 194)","OBJECT_ID":"2017-028A","EPOCH":"2026-03-03T16:34:06.798144","MEAN_MOTION":1.00262193,"ECCENTRICITY":0.07457728,"INCLINATION":39.5914,"RA_OF_ASC_NODE":244.6899,"ARG_OF_PERICENTER":270.3237,"MEAN_ANOMALY":36.6065,"EPHEMERIS_TYPE":0,"CLASSIFICATION_TYPE":"U","NORAD_CAT_ID":42738,"ELEMENT_SET_NO":999,"REV_AT_EPOCH":656,"BSTAR":0,"MEAN_MOTION_DOT":-1.77e-6,"MEAN_MOTION_DDOT":0},{"OBJECT_NAME":"QZS-3 (QZSS/PRN 199)","OBJECT_ID":"2017-048A","EPOCH":"2026-03-04T00:56:55.145760","MEAN_MOTION":1.00276118,"ECCENTRICITY":0.0002246,"INCLINATION":0.0732,"RA_OF_ASC_NODE":217.5376,"ARG_OF_PERICENTER":136.1343,"MEAN_ANOMALY":309.3169,"EPHEMERIS_TYPE":0,"CLASSIFICATION_TYPE":"U","NORAD_CAT_ID":42917,"ELEMENT_SET_NO":999,"REV_AT_EPOCH":3120,"BSTAR":0,"MEAN_MOTION_DOT":-3.61e-6,"MEAN_MOTION_DDOT":0},{"OBJECT_NAME":"QZS-4 (QZSS/PRN 195)","OBJECT_ID":"2017-062A","EPOCH":"2026-03-03T17:04:07.059648","MEAN_MOTION":1.00280942,"ECCENTRICITY":0.07487584,"INCLINATION":40.1734,"RA_OF_ASC_NODE":344.8321,"ARG_OF_PERICENTER":269.8785,"MEAN_ANOMALY":303.2235,"EPHEMERIS_TYPE":0,"CLASSIFICATION_TYPE":"U","NORAD_CAT_ID":42965,"ELEMENT_SET_NO":999,"REV_AT_EPOCH":3074,"BSTAR":0,"MEAN_MOTION_DOT":-3.43e-6,"MEAN_MOTION_DDOT":0},{"OBJECT_NAME":"BEIDOU-3 G1 (PRN 130)","OBJECT_ID":"2018-085A","EPOCH":"2026-03-04T05:00:51.808608","MEAN_MOTION":1.00268563,"ECCENTRICITY":0.0001342,"INCLINATION":2.8102,"RA_OF_ASC_NODE":100.3911,"ARG_OF_PERICENTER":24.9069,"MEAN_ANOMALY":251.9134,"EPHEMERIS_TYPE":0,"CLASSIFICATION_TYPE":"U","NORAD_CAT_ID":43683,"ELEMENT_SET_NO":999,"REV_AT_EPOCH":2700,"BSTAR":0,"MEAN_MOTION_DOT":-2.9e-6,"MEAN_MOTION_DDOT":0},{"OBJECT_NAME":"EUTELSAT 5 WEST B (EGNOS/PRN 121)","OBJECT_ID":"2019-067A","EPOCH":"2026-03-04T03:44:39.062688","MEAN_MOTION":1.00272586,"ECCENTRICITY":0.0003201,"INCLINATION":0.0953,"RA_OF_ASC_NODE":310.0726,"ARG_OF_PERICENTER":41.6885,"MEAN_ANOMALY":221.2732,"EPHEMERIS_TYPE":0,"CLASSIFICATION_TYPE":"U","NORAD_CAT_ID":44624,"ELEMENT_SET_NO":999,"REV_AT_EPOCH":2338,"BSTAR":0,"MEAN_MOTION_DOT":-5.5e-7,"MEAN_MOTION_DDOT":0},{"OBJECT_NAME":"BEIDOU-3 G2 (PRN 144)","OBJECT_ID":"2020-017A","EPOCH":"2026-03-04T02:26:09.091104","MEAN_MOTION":1.00271474,"ECCENTRICITY":0.0002769,"INCLINATION":2.6538,"RA_OF_ASC_NODE":45.6555,"ARG_OF_PERICENTER":309.2893,"MEAN_ANOMALY":283.4763,"EPHEMERIS_TYPE":0,"CLASSIFICATION_TYPE":"U","NORAD_CAT_ID":45344,"ELEMENT_SET_NO":999,"REV_AT_EPOCH":2220,"BSTAR":0,"MEAN_MOTION_DOT":-1.51e-6,"MEAN_MOTION_DDOT":0}]
